#dP2021  1 13  0  0  0.00000000      96 __u+U ITR00 FIT  IAC
## 2140 259200.00000000   900.00000000 59227 0.0000000000000
+  118   C01C02C03C04C05C06C08C09C10C11C12C13C14C16C19C20C21
+        C22C23C24C25C26C27C28C29C30C32C33C34C35C36C37C38C40
+        E01E02E03E04E05E07E08E09E11E12E13E14E15E18E19E21E24
+        E25E26E27E30E31E33E36G01G02G03G04G05G06G07G08G09G10
+        G11G12G13G14G15G16G17G18G19G20G21G22G23G24G25G26G27
+        G28G29G30G31G32J01J02J03J07R01R02R03R04R05R06R07R08
+        R09R10R11R12R13R14R15R16R17R18R19R20R21R22R23R24  0
++        13 13 17 14 13  8  9  8  8  8  8  8  8  8  8  8  8
++         8  8  8  8  8  8  8  8  8  8  8  9  9  8  8 12 11
++         4  4  4  4  4  5  5  4  5  5  5  4  4  4  5  4  5
++         4  5  4  4  5  5  4  4  4  4  4  4  4  4  4  4  3
++         4  4  4  3  4  7  4  4  4  4  4  4  4  4  4  4  4
++         4  4  4  4  4  9  8  8 14  6  6  6  6  6 13  6  6
++         6 13  7  6  7  6  6  7  6  6  7  7  8  7 13  6  0
%c M  cc GPS ccc cccc cccc cccc cccc ccccc ccccc ccccc ccccc
%c cc cc ccc ccc cccc cccc cccc cccc ccccc ccccc ccccc ccccc
%f  0.0000000  0.000000000  0.00000000000  0.000000000000000
%f  0.0000000  0.000000000  0.00000000000  0.000000000000000
%i    0    0    0    0      0      0      0      0         0
%i    0    0    0    0      0      0      0      0         0
/* INFORMATION & ANALYSIS CENTER (IAC)            RAPID DATA
/* S/V CLOCKS ARE ALIGNED TO GNSS TIME                      
/* G:C1WC2W R:C1PC2P E:C1XC5X C:C2IC6I J:C1CC2S             
/* PCV:IGS14_2134 OL/AL:FES2004  NONE     YN ORB:CoN CLK:CoN
*  2021 01 13  2 15  0.00000000
PC01 -34326.221992  24462.916412   -140.150799   -677.569777
PC02   4481.949652  41936.671936    665.620603    598.677043
PC03 -14796.076542  39521.441639   -201.055746    300.500199
PC04 -39633.804635  14342.004276   -642.139194   -393.148983
PC05  21903.058916  36022.225947   1030.407548   -541.116193
PC06  -8933.722372  23800.959863  34104.722957      0.768570
PC08 -10584.749617  37863.249714 -14562.061524   -890.107423
PC09   7631.915163  30919.629952  28092.939036    807.325463
PC10 -10558.481609  31096.511297 -26447.659587   -105.101113
PC11  21285.353944  17716.187391   3312.166383   -882.324205
PC12   9948.946899  22059.591481 -13836.202158    726.175958
PC13  -1597.814166  41980.287476   -363.365708     95.344894
PC14  19464.674387   7473.644980  18545.140772   -109.110349
PC16  -7315.710814  23844.470394  34099.397902   -658.170408
PC19 -25383.676882   -478.295741 -11575.049718    688.865190
PC20 -11896.288353 -12278.830973 -22048.654085   -909.397463
PC21  -9400.629716  17278.647258  19813.763961   -790.723325
PC22 -24567.643552  11875.634991   5900.284179   -842.981711
PC23  15831.167549 -16266.363455 -16240.332918   -882.084392
PC24   6056.849341  22361.993420 -15542.458555   -741.081083
PC25  15861.237705   3275.931641 -22731.365260   -895.358298
PC26  -5635.320723  27308.183510   -265.182866    963.762140
PC27   -565.695198 -19590.436745  19845.452096    465.469918
PC28  15839.229961  -6016.600989  22179.243509   -122.419185
PC29 -23316.014723 -10154.783152 -11487.282726    337.805989
PC30 -17062.441870 -21137.745184   6339.842430    430.461493
PC32   9287.495176 -17346.361494 -19776.956607   -883.196577
PC33  25340.605554    450.274105  11669.040250   -912.251570
PC34  17448.790328  21034.306366  -5711.033791   -764.449335
PC35 -15844.030558   6376.282016 -22061.275213   -468.337045
PC36 -15687.580921  -4042.890476  22742.727763   -778.521107
PC37   6789.381610 -27077.014715   -512.947772   -860.625801
PC38 -10171.671310  38791.584798 -12771.927194    123.567319
PC40 -19255.430922  26846.077762 -26264.710320    120.675841
PE01   2230.873280  20039.742017 -21664.124778  -1023.591325
PE02  -2305.039559 -19998.000780  21709.135453    190.630953
PE03 -13219.607346 -16888.144025 -20412.724735   -386.703934
PE04  27770.569261   8636.081117   5519.020690   -687.684603
PE05   9313.163329 -15346.144990 -23540.188140   -313.370310
PE07 -26195.817128   4863.805990  12902.367700   -486.946781
PE08 -27932.833015  -8276.962679  -5270.525582   6062.877956
PE09  26065.793069  -5033.554635 -13082.863557   5800.971921
PE11  14862.020891  -6575.251225  24740.581430   6479.059242
PE12  18230.306735  15263.628324  17649.434412   5409.564615
PE13 -14924.092989   6184.732090 -24790.243675    410.152419
PE14   9650.437265  21638.975632 -18660.167168  -1292.790184
PE15 -18228.265383 -15164.136037 -17703.634139    834.546400
PE18 -22053.685188 -15548.071443   4927.366033  -1412.913694
PE19  10812.744778  17132.781276  21580.689610    177.002666
PE21 -13972.819799  24945.071943  -7638.647251   -642.543113
PE24  22754.456544 -14879.122083 -11754.672430   -686.587398
PE25  14103.281341 -24936.014609   7480.087090   -524.209094
PE26  -2588.364628  24283.327632 -16711.398072   2271.831113
PE27 -22585.825482  15461.954625  11251.594905     52.309195
PE30 -17458.463157  -3891.189932  23572.962865   3267.472883
PE31  17877.980795   3020.326092 -23392.177222   -477.309379
PE33  10819.873381  27553.811333    241.074018   -464.819956
PE36   2867.630585 -23850.373483  17305.168297    455.004548
PG01  13817.111992  -5760.293812  21665.529721    781.126851
PG02 -13642.623153 -17554.340257 -13864.862272   -565.350850
PG03  22662.851921 -12218.249243   6225.755442    -54.828040
PG04  22175.303027  -1326.133379 -14591.848725   -172.270938
PG05 -17251.310298  -4006.992616 -20000.544538    -30.843297
PG06  -5675.936033 -25723.122838  -3137.244405     -4.611048
PG07   7526.485357 -20662.122069 -14205.905653     19.452577
PG08  25268.646629   4122.478171   7628.817398     -6.389756
PG09  12558.051864 -10960.052340 -20746.321529   -312.128959
PG10  -5239.802625  19322.599862  17419.739905    -37.906895
PG11  18784.559144   2386.752986  18036.696056    -54.592881
PG12 -23349.670914   8128.985649   9247.076741     13.730233
PG13 -22973.626646 -13452.846172   -573.999719     85.291685
PG14   8093.970057 -19532.520166  16066.515420     84.476543
PG15 -25459.857078  -1098.805901   7755.658566   -176.718226
PG16  16172.134878   6104.237928 -20523.948857   -264.264693
PG17  -5287.642963 -17235.525883  19941.392348    379.494760
PG18  -6117.066465  22558.339835 -12566.131771    340.814509
PG19 -12883.925810 -17906.479998  14571.700987    -52.666030
PG20 -13968.950519  21420.263089   6575.110312    525.190702
PG21  16252.396012   3083.884798  21589.016637     86.306511
PG22  21691.237590  -6077.688447  14138.741414   -699.201666
PG23 -14766.343520  20153.393078   8934.395295    115.804223
PG24 -15744.150670    959.280667  21153.169266      3.752053
PG25 -19321.632925  17781.410967  -3061.604676     58.622449
PG26   6871.586913  14367.028249 -21273.014409     29.071420
PG27  23075.359906  12753.841303  -4699.487661    -54.854418
PG28   5267.284905 -18569.555592  18894.592871    630.476375
PG29 -13868.992516   8696.829587 -20962.556015   -274.703877
PG30    469.507280 -26042.473117  -4516.420966   -368.013834
PG31   6992.740183  24683.727299  -5919.630668    -93.543786
PG32   7049.976925  17257.866265  19070.395775     13.977347
PJ01 -31186.429556  24663.868957  19114.235382   -336.390967
PJ02 -33227.636818  25042.288837  11803.173618      0.688071
PJ03 -21920.505247  19845.254051 -25415.536871     -0.099795
PJ07 -25391.273184  33658.386114     22.947931      0.061828
PR01  25227.234875  -3677.329389   -683.388471     73.410915
PR02  13235.597843 -10483.356147 -19109.368189    462.632124
PR03  -5852.538626 -10164.038724 -22608.416368     29.035371
PR04 -21371.371022  -3919.153510 -13333.662203     69.765338
PR05 -24889.081249   4324.380272   3443.151794     64.640138
PR06 -11907.634280  11138.148320  19592.709871    190.875464
PR07   6621.163343  10042.661536  22531.292248    -42.155664
PR08  21388.867560   4019.128899  13373.042174    -56.819678
PR09 -10754.797017  23099.386879   1799.160854     18.279423
PR10  -1469.318847  21045.723731 -14291.544452    -65.481868
PR11   8973.962579   6558.864667 -22950.348273      4.604901
PR12  14207.897986 -11822.146878 -17570.140030    196.199607
PR13  10826.062339 -22991.030111  -2268.113725    -49.229136
PR14   1040.220330 -20619.987857  14984.195650     59.792034
PR15  -9163.915066  -6380.695284  22951.401094    105.917772
PR16 -14057.954028  12730.368660  16960.771254    -10.143960
PR17 -10876.235416 -21462.299609   8543.254219    390.758334
PR18 -16990.028762 -17008.295481  -8428.514766     62.970545
PR19 -14278.864121  -4558.916124 -20633.089982   -127.663919
PR20  -2290.207277  13556.792482 -21480.934958   -431.008815
PR21  11476.605002  21512.037256  -7445.030236   -179.991136
PR22  17044.208491  16482.161443   9526.873225    -92.194530
PR23  10696.026697  -2740.793246  22993.834341    359.080500
PR24   1981.718630 -14336.785825  21031.773330     27.569357
EOF
